#dV2023  2 12 10  0  0.00000000    1682       CTS   FIT  GFZ
## 2249  36000.00000000    30.00000000 59987 0.4166666666667
+    1   L65  0  0  0  0  0  0  0  0  0  0  0  0  0  0  0  0
+          0  0  0  0  0  0  0  0  0  0  0  0  0  0  0  0  0
+          0  0  0  0  0  0  0  0  0  0  0  0  0  0  0  0  0
+          0  0  0  0  0  0  0  0  0  0  0  0  0  0  0  0  0
+          0  0  0  0  0  0  0  0  0  0  0  0  0  0  0  0  0
++         0  0  0  0  0  0  0  0  0  0  0  0  0  0  0  0  0
++         0  0  0  0  0  0  0  0  0  0  0  0  0  0  0  0  0
++         0  0  0  0  0  0  0  0  0  0  0  0  0  0  0  0  0
++         0  0  0  0  0  0  0  0  0  0  0  0  0  0  0  0  0
++         0  0  0  0  0  0  0  0  0  0  0  0  0  0  0  0  0
%c L  cc GPS ccc cccc cccc cccc cccc ccccc ccccc ccccc ccccc
%c cc cc ccc ccc cccc cccc cccc cccc ccccc ccccc ccccc ccccc
%f  0.0000000  0.000000000  0.00000000000  0.000000000000000
%f  0.0000000  0.000000000  0.00000000000  0.000000000000000
%i    0    0    0    0      0      0      0      0         0
%i    0    0    0    0      0      0      0      0         0
/* CCCCCCCCCCCCCCCCCCCCCCCCCCCCCCCCCCCCCCCCCCCCCCCCCCCCCCCCCCCCCCCCCCCCCCCCCCCCC
/* C                             GFZ RSO-ORBIT                                 C
/* C DOI: https://doi.org/10.5880/GFZ_ORBIT/RSO/L65_G_v02                      C
/* C                                                                           C
/* C DORIS        RMS: not applicable                                          C
/* C GNSS-E Code  RMS: not applicable                                          C
/* C GNSS-E Phase RMS: not applicable                                          C
/* C GNSS-G Code  RMS:  50.158 [cm]   Obs.acc.:     14190 Obs.eli.:      1179  C
/* C GNSS-G Phase RMS:   4.586 [mm]   Obs.acc.:     14190 Obs.eli.:      1179  C
/* C SLR          RMS:   8.103 [cm]   Obs.acc.:        59 Obs.eli.:         0  C
/* C                                                                           C
/* CCCCCCCCCCCCCCCCCCCCCCCCCCCCCCCCCCCCCCCCCCCCCCCCCCCCCCCCCCCCCCCCCCCCCCCCCCCCC
*  2023  2 12 13 49 30.00000000
PL65  -2944.799211   -976.330396  -6138.150605  10443.690047
VL65  64522.630086  20658.500307 -34382.970291 999999.999999
*  2023  2 12 13 50  0.00000000
PL65  -2749.521444   -914.258530  -6237.901698  10444.159664
VL65  65650.671803  20718.131284 -32111.789288 999999.999999
*  2023  2 12 13 50 30.00000000
PL65  -2550.967070   -852.049143  -6330.786781  10444.629272
VL65  66706.826121  20750.228737 -29806.049979 999999.999999
*  2023  2 12 13 51  0.00000000
PL65  -2349.353588   -789.784391  -6416.705970  10445.098861
VL65  67689.882804  20755.094577 -27468.284217 999999.999999
*  2023  2 12 13 51 30.00000000
PL65  -2144.902003   -727.545472  -6495.567019  10445.568415
VL65  68598.712381  20733.065365 -25101.052092 999999.999999
*  2023  2 12 13 52  0.00000000
PL65  -1937.836592   -665.412525  -6567.285401  10446.038058
VL65  69432.266433  20684.511217 -22706.938972 999999.999999
*  2023  2 12 13 52 30.00000000
PL65  -1728.384650   -603.464528  -6631.784379  10446.507700
VL65  70189.577609  20609.834415 -20288.552708 999999.999999
*  2023  2 12 13 53  0.00000000
PL65  -1516.776259   -541.779209  -6688.995072  10446.977264
VL65  70869.759039  20509.468039 -17848.521893 999999.999999
*  2023  2 12 13 53 30.00000000
PL65  -1303.244035   -480.432947  -6738.856515  10447.446725
VL65  71472.004919  20383.875349 -15389.495723 999999.999999
*  2023  2 12 13 54  0.00000000
PL65  -1088.022889   -419.500690  -6781.315719  10447.916263
VL65  71995.593420  20233.549830 -12914.142475 999999.999999
*  2023  2 12 13 54 30.00000000
PL65   -871.349770   -359.055859  -6816.327725  10448.385907
VL65  72439.888881  20059.014433 -10425.145028 999999.999999
*  2023  2 12 13 55  0.00000000
PL65   -653.463402   -299.170264  -6843.855638  10448.855660
VL65  72804.341244  19860.819893  -7925.196386 999999.999999
*  2023  2 12 13 55 30.00000000
PL65   -434.604035   -239.914023  -6863.870653  10449.325398
VL65  73088.484291  19639.542903  -5416.997895 999999.999999
*  2023  2 12 13 56  0.00000000
PL65   -215.013190   -181.355488  -6876.352085  10449.795127
VL65  73291.936330  19395.785252  -2903.259949 999999.999999
*  2023  2 12 13 56 30.00000000
PL65      5.066596   -123.561165  -6881.287390  10450.264902
VL65  73414.404211  19130.174463   -386.699635 999999.999999
*  2023  2 12 13 57  0.00000000
PL65    225.392045    -66.595643  -6878.672177  10450.734535
VL65  73455.684402  18843.362932   2129.966642 999999.999999
*  2023  2 12 13 57 30.00000000
PL65    445.719394    -10.521515  -6868.510196  10451.204210
VL65  73415.659145  18536.024551   4644.027226 999999.999999
*  2023  2 12 13 58  0.00000000
PL65    665.804658     44.600671  -6850.813329  10451.673860
VL65  73294.295504  18208.853056   7152.773348 999999.999999
*  2023  2 12 13 58 30.00000000
PL65    885.403881     98.712483  -6825.601575  10452.143638
VL65  73091.648659  17862.562544   9653.500715 999999.999999
*  2023  2 12 13 59  0.00000000
PL65   1104.273407    151.757660  -6792.903038  10452.613445
VL65  72807.861844  17497.886342  12143.514732 999999.999999
*  2023  2 12 13 59 30.00000000
PL65   1322.170139    203.682166  -6752.753884  10453.083128
VL65  72443.164803  17115.575397  14620.132445 999999.999999
*  2023  2 12 14  0  0.00000000
PL65   1538.851799    254.434245  -6705.198309  10453.552911
VL65  71997.873821  16716.397749  17080.684745 999999.999999
*  2023  2 12 14  0 30.00000000
PL65   1754.077187    303.964469  -6650.288494  10454.022644
VL65  71472.390425  16301.137521  19522.518352 999999.999999
*  2023  2 12 14  1  0.00000000
PL65   1967.606434    352.225786  -6588.084556  10454.492219
VL65  70867.202223  15870.593793  21942.995569 999999.999999
*  2023  2 12 14  1 30.00000000
PL65   2179.201270    399.173562  -6518.654497  10454.961852
VL65  70182.886996  15425.579996  24339.497305 999999.999999
*  2023  2 12 14  2  0.00000000
PL65   2388.625294    444.765622  -6442.074141  10455.431514
VL65  69420.112785  14966.922766  26709.431011 999999.999999
*  2023  2 12 14  2 30.00000000
PL65   2595.644238    488.962292  -6358.427042  10455.901227
VL65  68579.632564  14495.459652  29050.235349 999999.999999
*  2023  2 12 14  3  0.00000000
PL65   2800.026216    531.726421  -6267.804391  10456.370925
VL65  67662.281012  14012.037287  31359.379300 999999.999999
*  2023  2 12 14  3 30.00000000
PL65   3001.541967    573.023411  -6170.304929  10456.840722
VL65  66668.975122  13517.510612  33634.361753 999999.999999
*  2023  2 12 14  4  0.00000000
PL65   3199.965110    612.821242  -6066.034852  10457.310503
VL65  65600.715784  13012.741863  35872.713389 999999.999999
*  2023  2 12 14  4 30.00000000
PL65   3395.072391    651.090488  -5955.107714  10457.780231
VL65  64458.588535  12498.599237  38072.000431 999999.999999
*  2023  2 12 14  5  0.00000000
PL65   3586.643939    687.804337  -5837.644309  10458.249954
VL65  63243.762208  11975.955848  40229.829023 999999.999999
*  2023  2 12 14  5 30.00000000
PL65   3774.463512    722.938600  -5713.772551  10458.719667
VL65  61957.485729  11445.688802  42343.848057 999999.999999
*  2023  2 12 14  6  0.00000000
PL65   3958.318728    756.471726  -5583.627341  10459.189438
VL65  60601.086329  10908.678056  44411.749067 999999.999999
*  2023  2 12 14  6 30.00000000
PL65   4138.001311    788.384806  -5447.350441  10459.659131
VL65  59175.971290  10365.805251  46431.266789 999999.999999
*  2023  2 12 14  7  0.00000000
PL65   4313.307327    818.661577  -5305.090342  10460.128799
VL65  57683.629539   9817.952317  48400.183771 999999.999999
*  2023  2 12 14  7 30.00000000
PL65   4484.037427    847.288421  -5157.002105  10460.598501
VL65  56125.628915   9266.000061  50316.335932 999999.999999
*  2023  2 12 14  8  0.00000000
PL65   4649.997081    874.254357  -5003.247202  10461.068112
VL65  54503.611904   8710.826989  52177.614508 999999.999999
*  2023  2 12 14  8 30.00000000
PL65   4810.996795    899.551037  -4843.993347  10461.537251
VL65  52819.293989   8153.308101  53981.966408 999999.999999
*  2023  2 12 14  9  0.00000000
PL65   4966.852330    923.172730  -4679.414328  10462.005864
VL65  51074.463275   7594.313640  55727.395850 999999.999999
*  2023  2 12 14  9 30.00000000
PL65   5117.384920    945.116308  -4509.689832  10462.474613
VL65  49270.979789   7034.707937  57411.967061 999999.999999
*  2023  2 12 14 10  0.00000000
PL65   5262.421484    965.381224  -4335.005259  10462.943658
VL65  47410.773786   6475.348163  59033.807553 999999.999999
*  2023  2 12 14 10 30.00000000
PL65   5401.794835    983.969492  -4155.551527  10463.412997
VL65  45495.842900   5917.083118  60591.110680 999999.999999
*  2023  2 12 14 11  0.00000000
PL65   5535.343877   1000.885657  -3971.524874  10463.882365
VL65  43528.249720   5360.752246  62082.137053 999999.999999
*  2023  2 12 14 11 30.00000000
PL65   5662.913795   1016.136769  -3783.126654  10464.351803
VL65  41510.120226   4807.184484  63505.216183 999999.999999
*  2023  2 12 14 12  0.00000000
PL65   5784.356248   1029.732345  -3590.563126  10464.821317
VL65  39443.641994   4257.196930  64858.748451 999999.999999
*  2023  2 12 14 12 30.00000000
PL65   5899.529544   1041.684335  -3394.045239  10465.290745
VL65  37331.062557   3711.593775  66141.206972 999999.999999
*  2023  2 12 14 13  0.00000000
PL65   6008.298826   1052.007083  -3193.788412  10465.760263
VL65  35174.687755   3171.165345  67351.140132 999999.999999
*  2023  2 12 14 13 30.00000000
PL65   6110.536235   1060.717278  -2990.012300  10466.229862
VL65  32976.879113   2636.687024  68487.174267 999999.999999
*  2023  2 12 14 14  0.00000000
PL65   6206.121079   1067.833915  -2782.940562  10466.699590
VL65  30740.050777   2108.918268  69548.015795 999999.999999
*  2023  2 12 14 14 30.00000000
PL65   6294.939982   1073.378240  -2572.800613  10467.169380
VL65  28466.666434   1588.601532  70532.452828 999999.999999
EOF
